2026-134H               
1 69545U 26134H   26187.67341394  .00005159  00000+0  32187-3 0  9999
2 69545  97.7022 257.8744 0015272 208.1278 151.9127 15.09874029  3239
STARLINK-37880          
1 69546U 26135A   26187.84253986 -.01026801  00000+0 -78749-2 0  9992
2 69546  97.2838 215.9688 0000630   2.2364 357.8903 15.74434976  3361
STARLINK-37881          
1 69547U 26135B   26187.83900367  .00137264  00000+0  70613-3 0  9990
2 69547  97.2838 215.9733 0001282 127.3290 232.8095 15.80816258  3362
STARLINK-37265          
1 69548U 26135C   26187.83833855  .00335032  00000+0  16776-2 0  9990
2 69548  97.2840 215.9738 0002023  94.4750 265.6749 15.80893713  3361
STARLINK-37871          
1 69549U 26135D   26187.83740220  .00143412  00000+0  73545-3 0  9991
2 69549  97.2842 215.9754 0001635 116.2297 243.9140 15.80867831  3365
STARLINK-37865          
1 69550U 26135E   26187.01303703  .00285141  00000+0  14346-2 0  9993
2 69550  97.2843 215.1063 0001208 117.9018 242.2373 15.80917190  3238
STARLINK-37862          
1 69551U 26135F   26187.57994929  .00269163  00000+0  13601-2 0  9990
2 69551  97.2850 215.7134 0000677 112.8326 247.3014 15.80862633  3326
STARLINK-37861          
1 69552U 26135G   26187.83125105  .00229842  00000+0  11646-2 0  9999
2 69552  97.2846 215.9842 0000813  67.8734 292.2620 15.80903989  3360
STARLINK-37859          
1 69553U 26135H   26187.64041128  .00306755  00000+0  15458-2 0  9995
2 69553  97.2854 215.7842 0000758 100.0560 260.0794 15.80826275  3337
STARLINK-37860          
1 69554U 26135J   26187.45023645  .00193607  00000+0  98721-3 0  9994
2 69554  97.2852 215.5843 0000852  94.3736 265.7629 15.80860949  3302
STARLINK-37858          
1 69555U 26135K   26187.82822260  .00199773  00000+0  10158-2 0  9993
2 69555  97.2849 215.9887 0000810  91.6424 268.4937 15.80906393  3361
STARLINK-37927          
1 69556U 26135L   26187.82798670  .00139636  00000+0  71687-3 0  9998
2 69556  97.2852 215.9888 0001019  80.0921 280.0462 15.80854833  3367
STARLINK-37929          
1 69557U 26135M   26187.82732545 -.00754463  00000+0 -45226-2 0  9990
2 69557  97.2853 215.9895 0000288  47.9324 312.1968 15.79670345  3363
STARLINK-37954          
1 69558U 26135N   26187.82616281 -.00713691  00000+0 -42825-2 0  9999
2 69558  97.2856 215.9912 0004041 357.2459   2.8786 15.79510360  3365
STARLINK-37958          
1 69559U 26135P   26187.82346917  .00161022  00000+0  82444-3 0  9991
2 69559  97.2852 215.9954 0001150  73.4504 286.6891 15.80856548  3366
STARLINK-37950          
1 69560U 26135Q   26187.82331914  .00163226  00000+0  83499-3 0  9993
2 69560  97.2852 215.9952 0000689  80.1264 280.0082 15.80870077  3363
STARLINK-37952          
1 69561U 26135R   26187.63201926  .00120317  00000+0  61914-3 0  9994
2 69561  97.2846 215.7963 0001027  66.2098 293.9278 15.80855412  3337
STARLINK-37935          
1 69562U 26135S   26187.82158647 -.01093153  00000+0 -70135-2 0  9991
2 69562  97.2850 215.9976 0000636  74.6246 285.5091 15.78621842  3360
STARLINK-37936          
1 69563U 26135T   26187.75074281 -.01072253  00000+0 -63493-2 0  9992
2 69563  97.2848 215.9422 0012710 168.4741 191.6821 15.80519140  3359
STARLINK-37932          
1 69564U 26135U   26187.49724505  .00240140  00000+0  12100-2 0  9993
2 69564  97.2842 215.6733 0001292  97.8763 262.2652 15.81000045  3311
STARLINK-37916          
1 69565U 26135V   26187.62332481  .00294084  00000+0  14851-2 0  9998
2 69565  97.2845 215.8079 0001590  82.3993 277.7456 15.80812739  3330
STARLINK-37909          
1 69566U 26135W   26187.61701192  .00145655  00000+0  74682-3 0  9995
2 69566  97.2838 215.8171 0001504  89.8774 270.2667 15.80865928  3330
STARLINK-37934          
1 69567U 26135X   26187.62022117  .00263080  00000+0  13279-2 0  9997
2 69567  97.2837 215.8133 0002227  72.6742 287.4769 15.80902609  3337
STARLINK-37938          
1 69568U 26135Y   26187.80788169 -.01045154  00000+0 -65567-2 0  9994
2 69568  97.2843 216.0172 0000542  70.8500 289.2826 15.79427015  3369
STARLINK-37924          
1 69569U 26135Z   26187.80491035  .00238958  00000+0  12087-2 0  9990
2 69569  97.2840 216.0197 0001233 101.2561 258.8846 15.80919331  3361
SHIJIAN-31 (SJ-31)      
1 69570U 26136A   26187.74292628  .00000243  00000+0  00000+0 0  9996
2 69570  63.4839 354.0648 6940542 171.8102 212.3631  1.92222044   466
GUOWANG OBJECT A        
1 69572U 26137A   26187.70864623 -.00000225  00000+0 -64311-4 0  9997
2 69572  49.9994 177.6774 0012625 290.0968  69.8572 13.89812352  2735
GUOWANG OBJECT B        
1 69573U 26137B   26187.34621588 -.00000209  00000+0 -51391-4 0  9995
2 69573  50.0021 179.0914 0011868 287.9567  72.0037 13.89804342  2697
GUOWANG OBJECT C        
1 69574U 26137C   26187.70466721 -.00000146  00000+0  97203-7 0  9996
2 69574  49.9957 177.6426 0011939 291.0453  68.9168 13.89814850  2744
