OBJECT_NAME,OBJECT_ID,EPOCH,MEAN_MOTION,ECCENTRICITY,INCLINATION,RA_OF_ASC_NODE,ARG_OF_PERICENTER,MEAN_ANOMALY,EPHEMERIS_TYPE,CLASSIFICATION_TYPE,NORAD_CAT_ID,ELEMENT_SET_NO,REV_AT_EPOCH,BSTAR,MEAN_MOTION_DOT,MEAN_MOTION_DDOT
2026-134H,2026-134H,2026-07-06T16:09:42.964416,15.09874029,.0015272,97.7022,257.8744,208.1278,151.9127,0,U,69545,999,323,.32187E-3,.5159E-4,0
STARLINK-37880,2026-135A,2026-07-06T20:13:15.443904,15.74434976,.000063,97.2838,215.9688,2.2364,357.8903,0,U,69546,999,336,-.78749E-2,-.1026801E-1,0
STARLINK-37881,2026-135B,2026-07-06T20:08:09.917088,15.80816258,.0001282,97.2838,215.9733,127.3290,232.8095,0,U,69547,999,336,.70613E-3,.137264E-2,0
STARLINK-37265,2026-135C,2026-07-06T20:07:12.450720,15.80893713,.0002023,97.2840,215.9738,94.4750,265.6749,0,U,69548,999,336,.16776E-2,.335032E-2,0
STARLINK-37871,2026-135D,2026-07-06T20:05:51.550080,15.80867831,.0001635,97.2842,215.9754,116.2297,243.9140,0,U,69549,999,336,.73545E-3,.143412E-2,0
STARLINK-37865,2026-135E,2026-07-06T00:18:46.399392,15.80917190,.0001208,97.2843,215.1063,117.9018,242.2373,0,U,69550,999,323,.14346E-2,.285141E-2,0
STARLINK-37862,2026-135F,2026-07-06T13:55:07.618656,15.80862633,.0000677,97.2850,215.7134,112.8326,247.3014,0,U,69551,999,332,.13601E-2,.269163E-2,0
STARLINK-37861,2026-135G,2026-07-06T19:57:00.090720,15.80903989,.0000813,97.2846,215.9842,67.8734,292.2620,0,U,69552,999,336,.11646E-2,.229842E-2,0
STARLINK-37859,2026-135H,2026-07-06T15:22:11.534592,15.80826275,.0000758,97.2854,215.7842,100.0560,260.0794,0,U,69553,999,333,.15458E-2,.306755E-2,0
STARLINK-37860,2026-135J,2026-07-06T10:48:20.429280,15.80860949,.0000852,97.2852,215.5843,94.3736,265.7629,0,U,69554,999,330,.98721E-3,.193607E-2,0
STARLINK-37858,2026-135K,2026-07-06T19:52:38.432640,15.80906393,.000081,97.2849,215.9887,91.6424,268.4937,0,U,69555,999,336,.10158E-2,.199773E-2,0
STARLINK-37927,2026-135L,2026-07-06T19:52:18.050880,15.80854833,.0001019,97.2852,215.9888,80.0921,280.0462,0,U,69556,999,336,.71687E-3,.139636E-2,0
STARLINK-37929,2026-135M,2026-07-06T19:51:20.918880,15.79670345,.0000288,97.2853,215.9895,47.9324,312.1968,0,U,69557,999,336,-.45226E-2,-.754463E-2,0
STARLINK-37954,2026-135N,2026-07-06T19:49:40.466784,15.79510360,.0004041,97.2856,215.9912,357.2459,2.8786,0,U,69558,999,336,-.42825E-2,-.713691E-2,0
STARLINK-37958,2026-135P,2026-07-06T19:45:47.736288,15.80856548,.000115,97.2852,215.9954,73.4504,286.6891,0,U,69559,999,336,.82444E-3,.161022E-2,0
STARLINK-37950,2026-135Q,2026-07-06T19:45:34.773696,15.80870077,.0000689,97.2852,215.9952,80.1264,280.0082,0,U,69560,999,336,.83499E-3,.163226E-2,0
STARLINK-37952,2026-135R,2026-07-06T15:10:06.464064,15.80855412,.0001027,97.2846,215.7963,66.2098,293.9278,0,U,69561,999,333,.61914E-3,.120317E-2,0
STARLINK-37935,2026-135S,2026-07-06T19:43:05.071008,15.78621842,.0000636,97.2850,215.9976,74.6246,285.5091,0,U,69562,999,336,-.70135E-2,-.1093153E-1,0
STARLINK-37936,2026-135T,2026-07-06T18:01:04.178784,15.80519140,.001271,97.2848,215.9422,168.4741,191.6821,0,U,69563,999,335,-.63493E-2,-.1072253E-1,0
STARLINK-37932,2026-135U,2026-07-06T11:56:01.972320,15.81000045,.0001292,97.2842,215.6733,97.8763,262.2652,0,U,69564,999,331,.121E-2,.24014E-2,0
STARLINK-37916,2026-135V,2026-07-06T14:57:35.263584,15.80812739,.000159,97.2845,215.8079,82.3993,277.7456,0,U,69565,999,333,.14851E-2,.294084E-2,0
STARLINK-37909,2026-135W,2026-07-06T14:48:29.829888,15.80865928,.0001504,97.2838,215.8171,89.8774,270.2667,0,U,69566,999,333,.74682E-3,.145655E-2,0
STARLINK-37934,2026-135X,2026-07-06T14:53:07.109088,15.80902609,.0002227,97.2837,215.8133,72.6742,287.4769,0,U,69567,999,333,.13279E-2,.26308E-2,0
STARLINK-37938,2026-135Y,2026-07-06T19:23:20.978016,15.79427015,.0000542,97.2843,216.0172,70.8500,289.2826,0,U,69568,999,336,-.65567E-2,-.1045154E-1,0
STARLINK-37924,2026-135Z,2026-07-06T19:19:04.254240,15.80919331,.0001233,97.2840,216.0197,101.2561,258.8846,0,U,69569,999,336,.12087E-2,.238958E-2,0
SHIJIAN-31 (SJ-31),2026-136A,2026-07-06T17:49:48.830592,1.92222044,.6940542,63.4839,354.0648,171.8102,212.3631,0,U,69570,999,46,0,.243E-5,0
GUOWANG OBJECT A,2026-137A,2026-07-06T17:00:27.034272,13.89812352,.0012625,49.9994,177.6774,290.0968,69.8572,0,U,69572,999,273,-.64311E-4,-.225E-5,0
GUOWANG OBJECT B,2026-137B,2026-07-06T08:18:33.052032,13.89804342,.00118685,50.0021,179.0914,287.9567,72.0037,0,U,69573,999,269,-.51390844E-4,-.209E-5,0
GUOWANG OBJECT C,2026-137C,2026-07-06T16:54:43.246944,13.89814850,.0011939,49.9957,177.6426,291.0453,68.9168,0,U,69574,999,274,.97203E-7,-.146E-5,0
